CCSDS_OMM_VERS = 2.0
CREATION_DATE  = 
ORIGINATOR     = 

OBJECT_NAME    = STARLINK-35623
OBJECT_ID      = 2025-237AA
CENTER_NAME    = EARTH
REF_FRAME      = TEME
TIME_SYSTEM    = UTC
MEAN_ELEMENT_THEORY = SGP/SGP4

EPOCH          = 2025-11-04T06:00:02.000160
MEAN_MOTION    = 15.74133802
ECCENTRICITY   = .00013098
INCLINATION    = 53.1535
RA_OF_ASC_NODE = 270.7709
ARG_OF_PERICENTER = 91.6969
MEAN_ANOMALY   = 346.6405

EPHEMERIS_TYPE = 0
CLASSIFICATION_TYPE = U
NORAD_CAT_ID   = 66138
ELEMENT_SET_NO = 999
REV_AT_EPOCH   = 329
BSTAR          = .33523004E-3
MEAN_MOTION_DOT = .48633E-3
MEAN_MOTION_DDOT = 0

CCSDS_OMM_VERS = 2.0
CREATION_DATE  = 
ORIGINATOR     = 

OBJECT_NAME    = STARLINK-35549
OBJECT_ID      = 2025-237AB
CENTER_NAME    = EARTH
REF_FRAME      = TEME
TIME_SYSTEM    = UTC
MEAN_ELEMENT_THEORY = SGP/SGP4

EPOCH          = 2025-11-04T06:00:02.000160
MEAN_MOTION    = 15.74102955
ECCENTRICITY   = .00011314
INCLINATION    = 53.1535
RA_OF_ASC_NODE = 270.7629
ARG_OF_PERICENTER = 99.8603
MEAN_ANOMALY   = 342.3093

EPHEMERIS_TYPE = 0
CLASSIFICATION_TYPE = U
NORAD_CAT_ID   = 66139
ELEMENT_SET_NO = 999
REV_AT_EPOCH   = 329
BSTAR          = .83184945E-3
MEAN_MOTION_DOT = .122526E-2
MEAN_MOTION_DDOT = 0

CCSDS_OMM_VERS = 2.0
CREATION_DATE  = 
ORIGINATOR     = 

OBJECT_NAME    = STARLINK-35625
OBJECT_ID      = 2025-237AC
CENTER_NAME    = EARTH
REF_FRAME      = TEME
TIME_SYSTEM    = UTC
MEAN_ELEMENT_THEORY = SGP/SGP4

EPOCH          = 2025-11-04T06:00:02.000160
MEAN_MOTION    = 15.74132642
ECCENTRICITY   = .00011428
INCLINATION    = 53.1535
RA_OF_ASC_NODE = 270.7671
ARG_OF_PERICENTER = 80.3908
MEAN_ANOMALY   = 359.8677

EPHEMERIS_TYPE = 0
CLASSIFICATION_TYPE = U
NORAD_CAT_ID   = 66140
ELEMENT_SET_NO = 999
REV_AT_EPOCH   = 329
BSTAR          = .32164982E-3
MEAN_MOTION_DOT = .46623E-3
MEAN_MOTION_DDOT = 0

CCSDS_OMM_VERS = 2.0
CREATION_DATE  = 
ORIGINATOR     = 

OBJECT_NAME    = STARLINK-35603
OBJECT_ID      = 2025-237AD
CENTER_NAME    = EARTH
REF_FRAME      = TEME
TIME_SYSTEM    = UTC
MEAN_ELEMENT_THEORY = SGP/SGP4

EPOCH          = 2025-11-04T06:00:02.000160
MEAN_MOTION    = 15.74101254
ECCENTRICITY   = .00012986
INCLINATION    = 53.1534
RA_OF_ASC_NODE = 270.7588
ARG_OF_PERICENTER = 73.7097
MEAN_ANOMALY   = 10.3534

EPHEMERIS_TYPE = 0
CLASSIFICATION_TYPE = U
NORAD_CAT_ID   = 66141
ELEMENT_SET_NO = 999
REV_AT_EPOCH   = 329
BSTAR          = .10913981E-2
MEAN_MOTION_DOT = .161697E-2
MEAN_MOTION_DDOT = 0

CCSDS_OMM_VERS = 2.0
CREATION_DATE  = 
ORIGINATOR     = 

OBJECT_NAME    = TJS-20
OBJECT_ID      = 2025-238A
CENTER_NAME    = EARTH
REF_FRAME      = TEME
TIME_SYSTEM    = UTC
MEAN_ELEMENT_THEORY = SGP/SGP4

EPOCH          = 2025-11-04T02:52:58.056960
MEAN_MOTION    = 1.00270004
ECCENTRICITY   = .00020152
INCLINATION    = 5.9764
RA_OF_ASC_NODE = 300.4883
ARG_OF_PERICENTER = 152.3690
MEAN_ANOMALY   = 56.4970

EPHEMERIS_TYPE = 0
CLASSIFICATION_TYPE = U
NORAD_CAT_ID   = 66142
ELEMENT_SET_NO = 999
REV_AT_EPOCH   = 7
BSTAR          = 0
MEAN_MOTION_DOT = .26E-6
MEAN_MOTION_DDOT = 0

CCSDS_OMM_VERS = 2.0
CREATION_DATE  = 
ORIGINATOR     = 

OBJECT_NAME    = CZ-5 R/B
OBJECT_ID      = 2025-238B
CENTER_NAME    = EARTH
REF_FRAME      = TEME
TIME_SYSTEM    = UTC
MEAN_ELEMENT_THEORY = SGP/SGP4

EPOCH          = 2025-11-03T19:46:26.556672
MEAN_MOTION    = 1.93218133
ECCENTRICITY   = .75956086
INCLINATION    = 16.3657
RA_OF_ASC_NODE = 269.6428
ARG_OF_PERICENTER = 171.0204
MEAN_ANOMALY   = 221.6700

EPHEMERIS_TYPE = 0
CLASSIFICATION_TYPE = U
NORAD_CAT_ID   = 66143
ELEMENT_SET_NO = 999
REV_AT_EPOCH   = 23
BSTAR          = .12485209E-2
MEAN_MOTION_DOT = .3021E-3
MEAN_MOTION_DDOT = .667352E-6

CCSDS_OMM_VERS = 2.0
CREATION_DATE  = 
ORIGINATOR     = 

OBJECT_NAME    = SPAINSAT NG II
OBJECT_ID      = 2025-239A
CENTER_NAME    = EARTH
REF_FRAME      = TEME
TIME_SYSTEM    = UTC
MEAN_ELEMENT_THEORY = SGP/SGP4

EPOCH          = 2025-10-29T16:25:50.814624
MEAN_MOTION    = 1.13577027
ECCENTRICITY   = .81541196
INCLINATION    = 24.9713
RA_OF_ASC_NODE = 246.2153
ARG_OF_PERICENTER = 179.7432
MEAN_ANOMALY   = 181.7033

EPHEMERIS_TYPE = 0
CLASSIFICATION_TYPE = U
NORAD_CAT_ID   = 66144
ELEMENT_SET_NO = 999
REV_AT_EPOCH   = 8
BSTAR          = .46486231E-3
MEAN_MOTION_DOT = -.205E-5
MEAN_MOTION_DDOT = 0

CCSDS_OMM_VERS = 2.0
CREATION_DATE  = 
ORIGINATOR     = 

OBJECT_NAME    = HTV-X1
OBJECT_ID      = 2025-241A
CENTER_NAME    = EARTH
REF_FRAME      = TEME
TIME_SYSTEM    = UTC
MEAN_ELEMENT_THEORY = SGP/SGP4

EPOCH          = 2025-11-04T03:56:45.386016
MEAN_MOTION    = 15.49739341
ECCENTRICITY   = .00050356
INCLINATION    = 51.6336
RA_OF_ASC_NODE = 333.4485
ARG_OF_PERICENTER = 15.3367
MEAN_ANOMALY   = 344.7773

EPHEMERIS_TYPE = 0
CLASSIFICATION_TYPE = U
NORAD_CAT_ID   = 66174
ELEMENT_SET_NO = 999
REV_AT_EPOCH   = 139
BSTAR          = .19921566E-3
MEAN_MOTION_DOT = .10829E-3
MEAN_MOTION_DDOT = 0

CCSDS_OMM_VERS = 2.0
CREATION_DATE  = 
ORIGINATOR     = 

OBJECT_NAME    = GAOFEN-14 02
OBJECT_ID      = 2025-242A
CENTER_NAME    = EARTH
REF_FRAME      = TEME
TIME_SYSTEM    = UTC
MEAN_ELEMENT_THEORY = SGP/SGP4

EPOCH          = 2025-10-28T02:32:28.748256
MEAN_MOTION    = 15.27335919
ECCENTRICITY   = .0010327
INCLINATION    = 97.4398
RA_OF_ASC_NODE = 13.2893
ARG_OF_PERICENTER = 261.9781
MEAN_ANOMALY   = 98.0286

EPHEMERIS_TYPE = 0
CLASSIFICATION_TYPE = U
NORAD_CAT_ID   = 66175
ELEMENT_SET_NO = 999
REV_AT_EPOCH   = 30
BSTAR          = .55401E-3
MEAN_MOTION_DOT = .14793E-3
MEAN_MOTION_DDOT = 0

CCSDS_OMM_VERS = 2.0
CREATION_DATE  = 
ORIGINATOR     = 

OBJECT_NAME    = CZ-3B R/B
OBJECT_ID      = 2025-242B
CENTER_NAME    = EARTH
REF_FRAME      = TEME
TIME_SYSTEM    = UTC
MEAN_ELEMENT_THEORY = SGP/SGP4

EPOCH          = 2025-10-28T22:23:52.906272
MEAN_MOTION    = 15.40950652
ECCENTRICITY   = .010504
INCLINATION    = 97.4517
RA_OF_ASC_NODE = 13.9913
ARG_OF_PERICENTER = 32.7474
MEAN_ANOMALY   = 328.0225

EPHEMERIS_TYPE = 0
CLASSIFICATION_TYPE = U
NORAD_CAT_ID   = 66176
ELEMENT_SET_NO = 999
REV_AT_EPOCH   = 43
BSTAR          = .72796E-3
MEAN_MOTION_DOT = .36568E-3
MEAN_MOTION_DDOT = 0

CCSDS_OMM_VERS = 2.0
CREATION_DATE  = 
ORIGINATOR     = 

OBJECT_NAME    = 2025-242C
OBJECT_ID      = 2025-242C
CENTER_NAME    = EARTH
REF_FRAME      = TEME
TIME_SYSTEM    = UTC
MEAN_ELEMENT_THEORY = SGP/SGP4

EPOCH          = 2025-10-26T09:41:17.179584
MEAN_MOTION    = 15.17165482
ECCENTRICITY   = .0044551
INCLINATION    = 97.6110
RA_OF_ASC_NODE = 12.4552
ARG_OF_PERICENTER = 134.5252
MEAN_ANOMALY   = 225.9635

EPHEMERIS_TYPE = 0
CLASSIFICATION_TYPE = U
NORAD_CAT_ID   = 66177
ELEMENT_SET_NO = 999
REV_AT_EPOCH   = 3
BSTAR          = .21434E-3
MEAN_MOTION_DOT = .4293E-4
MEAN_MOTION_DDOT = 0

CCSDS_OMM_VERS = 2.0
CREATION_DATE  = 
ORIGINATOR     = 

OBJECT_NAME    = GRAVITY-1 R/B
OBJECT_ID      = 2025-226E
CENTER_NAME    = EARTH
REF_FRAME      = TEME
TIME_SYSTEM    = UTC
MEAN_ELEMENT_THEORY = SGP/SGP4

EPOCH          = 2025-11-04T04:18:02.979360
MEAN_MOTION    = 15.53789012
ECCENTRICITY   = .01610681
INCLINATION    = 97.7936
RA_OF_ASC_NODE = 24.4928
ARG_OF_PERICENTER = 312.1345
MEAN_ANOMALY   = 46.6312

EPHEMERIS_TYPE = 0
CLASSIFICATION_TYPE = U
NORAD_CAT_ID   = 66205
ELEMENT_SET_NO = 999
REV_AT_EPOCH   = 148
BSTAR          = .37571978E-3
MEAN_MOTION_DOT = .42228E-3
MEAN_MOTION_DDOT = .281886E-5

CCSDS_OMM_VERS = 2.0
CREATION_DATE  = 
ORIGINATOR     = 

OBJECT_NAME    = SHENZHOU-21 (SZ-21)
OBJECT_ID      = 2025-246A
CENTER_NAME    = EARTH
REF_FRAME      = TEME
TIME_SYSTEM    = UTC
MEAN_ELEMENT_THEORY = SGP/SGP4

EPOCH          = 2025-11-04T03:50:32.751456
MEAN_MOTION    = 15.60341380
ECCENTRICITY   = .0006377
INCLINATION    = 41.4668
RA_OF_ASC_NODE = 251.0039
ARG_OF_PERICENTER = 319.7576
MEAN_ANOMALY   = 40.2790

EPHEMERIS_TYPE = 0
CLASSIFICATION_TYPE = U
NORAD_CAT_ID   = 66263
ELEMENT_SET_NO = 999
REV_AT_EPOCH   = 25798
BSTAR          = .38952949E-3
MEAN_MOTION_DOT = .32649E-3
MEAN_MOTION_DDOT = 0

CCSDS_OMM_VERS = 2.0
CREATION_DATE  = 
ORIGINATOR     = 

OBJECT_NAME    = CZ-2F R/B
OBJECT_ID      = 2025-246B
CENTER_NAME    = EARTH
REF_FRAME      = TEME
TIME_SYSTEM    = UTC
MEAN_ELEMENT_THEORY = SGP/SGP4

EPOCH          = 2025-11-04T03:06:07.098048
MEAN_MOTION    = 16.06762742
ECCENTRICITY   = .00958627
INCLINATION    = 41.4657
RA_OF_ASC_NODE = 249.8168
ARG_OF_PERICENTER = 151.7950
MEAN_ANOMALY   = 208.8142

EPHEMERIS_TYPE = 0
CLASSIFICATION_TYPE = U
NORAD_CAT_ID   = 66264
ELEMENT_SET_NO = 999
REV_AT_EPOCH   = 56
BSTAR          = .64608113E-3
MEAN_MOTION_DOT = .1014878E-1
MEAN_MOTION_DDOT = .7581539E-5

CCSDS_OMM_VERS = 2.0
CREATION_DATE  = 
ORIGINATOR     = 

OBJECT_NAME    = CMS-03 (GSAT-7R)
OBJECT_ID      = 2025-249A
CENTER_NAME    = EARTH
REF_FRAME      = TEME
TIME_SYSTEM    = UTC
MEAN_ELEMENT_THEORY = SGP/SGP4

EPOCH          = 2025-11-03T15:11:31.440192
MEAN_MOTION    = 3.11808645
ECCENTRICITY   = .66867044
INCLINATION    = 21.3168
RA_OF_ASC_NODE = 160.0657
ARG_OF_PERICENTER = 179.2209
MEAN_ANOMALY   = 182.9715

EPHEMERIS_TYPE = 0
CLASSIFICATION_TYPE = U
NORAD_CAT_ID   = 66310
ELEMENT_SET_NO = 999
REV_AT_EPOCH   = 5
BSTAR          = .37851344E-3
MEAN_MOTION_DOT = .14449E-3
MEAN_MOTION_DDOT = -.181908E-6

